{
  "last_updated": "2025-12-04T06:00:02.107334",
  "satellites": {
    "98592": {
      "name": "DUTHSat-2",
      "norad_id": "98592",
      "tle": "1 64530U 25135C   25337.29695154  .00010822  00000-0  48775-3 0  9992\n2 64530  97.4504  89.3245 0005769 146.7307 213.4293 15.21201335 25098",
      "epoch": "2025-12-03T07:07:36.613056",
      "fetched_at": "2025-12-04T06:00:02.257064",
      "source": "satnogs"
    },
    "98530": {
      "name": "LAMARR",
      "norad_id": "98530",
      "tle": "1 98430U          25336.84714994  .00019756  00000+0  10119-2 0 00047\n2 98430  97.4362  48.7819 0005996 354.5105   5.6061 15.16613289000624",
      "epoch": "2025-12-02T20:19:53.754816",
      "fetched_at": "2025-12-04T06:00:02.313057",
      "source": "satnogs"
    },
    "98529": {
      "name": "DIRAC",
      "norad_id": "98529",
      "tle": "1 98429U          25336.97918620  .00007601  00000+0  39295-3 0 00044\n2 98429  97.4435  48.9137 0005515 334.3930  25.7030 15.16536846000641",
      "epoch": "2025-12-02T23:30:01.687680",
      "fetched_at": "2025-12-04T06:00:02.381176",
      "source": "satnogs"
    },
    "98518": {
      "name": "MICE-1",
      "norad_id": "98518",
      "tle": "1 98518C 25276Z   25332.82022451 -.00006635  00000+0 -34088-3 0    02\n2 98518  97.4521  44.8306 0005282 340.9975   7.9865 15.16561278    18",
      "epoch": "2025-11-28T19:41:07.397664",
      "fetched_at": "2025-12-04T06:00:02.433604",
      "source": "satnogs"
    }
  },
  "fetch_log": [
    {
      "norad_id": "98592",
      "name": "DUTHSat-2",
      "status": "success",
      "source": "satnogs",
      "timestamp": "2025-12-04T06:00:02.257068"
    },
    {
      "norad_id": "98530",
      "name": "LAMARR",
      "status": "success",
      "source": "satnogs",
      "timestamp": "2025-12-04T06:00:02.313061"
    },
    {
      "norad_id": "98529",
      "name": "DIRAC",
      "status": "success",
      "source": "satnogs",
      "timestamp": "2025-12-04T06:00:02.381178"
    },
    {
      "norad_id": "98518",
      "name": "MICE-1",
      "status": "success",
      "source": "satnogs",
      "timestamp": "2025-12-04T06:00:02.433607"
    }
  ]
}